norad_id,name,regime,epoch,line1,line2,inclination,eccentricity,mean_motion,raan,arg_pericenter,mean_anomaly
43015,MIRATA,LEO,22086.66827528,1 43015U 17073C   22086.66827528  .00007190  00000-0  52985-3 0    16\,2 43015  97.6832 345.0451 0244954  89.7544 273.1734 14.82608573235143,97.6832,0.0244954,14.82608573,345.0451,89.7544,273.1734
43015,MIRATA,LEO,22087.20819324,1 43015U 17073C   22087.20819324  .00008649  00000-0  63607-3 0  3568\,2 43015  97.6833 345.5643 0244920  87.9956 274.9285 14.82620060235226,97.6833,0.024492,14.8262006,345.5643,87.9956,274.9285
43015,MIRATA,LEO,22087.47815134,1 43015U 17073C   22087.47815134  .00008108  00000-0  59658-3 0    10\,2 43015  97.6835 345.8238 0244936  87.1187 275.8029 14.82623110235265,97.6835,0.0244936,14.8262311,345.8238,87.1187,275.8029
43015,MIRATA,LEO,22088.42299569,1 43015U 17073C   22088.42299569  .00008168  00000-0  60085-3 0    16\,2 43015  97.6835 346.7326 0244850  84.0401 278.8659 14.82639674235403,97.6835,0.024485,14.82639674,346.7326,84.0401,278.8659
43015,MIRATA,LEO,22088.69294931,1 43015U 17073C   22088.69294931  .00007956  00000-0  58540-3 0    10\,2 43015  97.6835 346.9922 0244830  83.1611 279.7390 14.82643948235443,97.6835,0.024483,14.82643948,346.9922,83.1611,279.739
43015,MIRATA,LEO,22089.50280426,1 43015U 17073C   22089.50280426  .00009318  00000-0  68456-3 0    16\,2 43015  97.6832 347.7715 0244764  80.5209 282.3578 14.82658825235560,97.6832,0.0244764,14.82658825,347.7715,80.5209,282.3578
43015,MIRATA,LEO,22089.63777925,1 43015U 17073C   22089.63777925  .00009519  00000-0  69917-3 0    11\,2 43015  97.6832 347.9014 0244752  80.0814 282.7930 14.82661496235584,97.6832,0.0244752,14.82661496,347.9014,80.0814,282.793
43015,MIRATA,LEO,22090.51510901,1 43015U 17073C   22090.51510901  .00013041  00000-0  95534-3 0    18\,2 43015  97.6830 348.7453 0244684  77.2246 285.6191 14.82683269235717,97.683,0.0244684,14.82683269,348.7453,77.2246,285.6191
43015,MIRATA,LEO,22090.65008180,1 43015U 17073C   22090.65008180  .00013209  00000-0  96747-3 0    17\,2 43015  97.6829 348.8753 0244685  76.7859 286.0525 14.82686421235735,97.6829,0.0244685,14.82686421,348.8753,76.7859,286.0525
43015,MIRATA,LEO,22091.45991002,1 43015U 17073C   22091.45991002  .00014204  00000-0  10395-2 0    10\,2 43015  97.6827 349.6542 0244631  74.1541 288.6493 14.82706597235851,97.6827,0.0244631,14.82706597,349.6542,74.1541,288.6493
43015,MIRATA,LEO,22092.26972477,1 43015U 17073C   22092.26972477  .00013392  00000-0  98007-3 0  3607\,2 43015  97.6825 350.4330 0244563  71.5173 291.2452 14.82728640235971,97.6825,0.0244563,14.8272864,350.433,71.5173,291.2452
43015,MIRATA,LEO,22092.67462657,1 43015U 17073C   22092.67462657  .00014349  00000-0  10494-2 0    14\,2 43015  97.6823 350.8224 0244527  70.1971 292.5428 14.82742063236036,97.6823,0.0244527,14.82742063,350.8224,70.1971,292.5428
43015,MIRATA,LEO,22093.48442153,1 43015U 17073C   22093.48442153  .00010815  00000-0  79241-3 0  3612\,2 43015  97.6819 351.6012 0244434  67.5613 295.1292 14.82759223236152,97.6819,0.0244434,14.82759223,351.6012,67.5613,295.1292
43015,MIRATA,LEO,22093.68686852,1 43015U 17073C   22093.68686852  .00011088  00000-0  81222-3 0    16\,2 43015  97.6817 351.7960 0244409  66.8991 295.7783 14.82764648236187,97.6817,0.0244409,14.82764648,351.796,66.8991,295.7783
43015,MIRATA,LEO,22094.42916821,1 43015U 17073C   22094.42916821  .00012714  00000-0  93047-3 0    16\,2 43015  97.6815 352.5102 0244289  64.4692 298.1564 14.82783062236297,97.6815,0.0244289,14.82783062,352.5102,64.4692,298.1564
43015,MIRATA,LEO,22094.69909315,1 43015U 17073C   22094.69909315  .00012600  00000-0  92215-3 0    15\,2 43015  97.6814 352.7698 0244255  63.5883 299.0176 14.82789461236336,97.6814,0.0244255,14.82789461,352.7698,63.5883,299.0176
43015,MIRATA,LEO,22095.44137977,1 43015U 17073C   22095.44137977  .00011404  00000-0  83513-3 0    18\,2 43015  97.6811 353.4837 0244158  61.1730 301.3759 14.82805672236442,97.6811,0.0244158,14.82805672,353.4837,61.173,301.3759
43015,MIRATA,LEO,22095.64382027,1 43015U 17073C   22095.64382027  .00010874  00000-0  79657-3 0    12\,2 43015  97.6810 353.6784 0244144  60.5128 302.0199 14.82809721236471,97.681,0.0244144,14.82809721,353.6784,60.5128,302.0199
43015,MIRATA,LEO,22096.18365754,1 43015U 17073C   22096.18365754  .00010815  00000-0  79216-3 0  3637\,2 43015  97.6809 354.1975 0244090  58.7587 303.7294 14.82821914236556,97.6809,0.024409,14.82821914,354.1975,58.7587,303.7294
43015,MIRATA,LEO,22096.45357425,1 43015U 17073C   22096.45357425  .00012142  00000-0  88859-3 0    10\,2 43015  97.6808 354.4570 0244051  57.8828 304.5821 14.82829438236592,97.6808,0.0244051,14.82829438,354.457,57.8828,304.5821
43015,MIRATA,LEO,22096.65601158,1 43015U 17073C   22096.65601158  .00011474  00000-0  84001-3 0    19\,2 43015  97.6808 354.6516 0244051  57.2242 305.2231 14.82832953236621,97.6808,0.0244051,14.82832953,354.6516,57.2242,305.2231
43015,MIRATA,LEO,22097.19584026,1 43015U 17073C   22097.19584026  .00010419  00000-0  76321-3 0  3649\,2 43015  97.6807 355.1708 0244018  55.4653 306.9334 14.82843449236701,97.6807,0.0244018,14.82843449,355.1708,55.4653,306.9334
43015,MIRATA,LEO,22097.53323046,1 43015U 17073C   22097.53323046  .00012763  00000-0  93337-3 0    18\,2 43015  97.6809 355.4953 0243972  54.3687 307.9985 14.82853753236758,97.6809,0.0243972,14.82853753,355.4953,54.3687,307.9985
43015,MIRATA,LEO,22097.66818622,1 43015U 17073C   22097.66818622  .00012399  00000-0  90695-3 0    10\,2 43015  97.6810 355.6251 0243964  53.9294 308.4250 14.82856549236772,97.681,0.0243964,14.82856549,355.6251,53.9294,308.425
43015,MIRATA,LEO,22098.47791258,1 43015U 17073C   22098.47791258  .00011173  00000-0  81777-3 0    15\,2 43015  97.6809 356.4039 0243870  51.2809 310.9935 14.82874869236898,97.6809,0.024387,14.82874869,356.4039,51.2809,310.9935
43015,MIRATA,LEO,22098.68034234,1 43015U 17073C   22098.68034234  .00010911  00000-0  79878-3 0    10\,2 43015  97.6809 356.5986 0243830  50.6180 311.6355 14.82879881236928,97.6809,0.024383,14.82879881,356.5986,50.618,311.6355
43015,MIRATA,LEO,22099.42257980,1 43015U 17073C   22099.42257980  .00010360  00000-0  75874-3 0    18\,2 43015  97.6810 357.3124 0243722  48.1830 313.9919 14.82895322237039,97.681,0.0243722,14.82895322,357.3124,48.183,313.9919
43015,MIRATA,LEO,22099.69248222,1 43015U 17073C   22099.69248222  .00011205  00000-0  82016-3 0    11\,2 43015  97.6810 357.5721 0243679  47.2987 314.8467 14.82902246237074,97.681,0.0243679,14.82902246,357.5721,47.2987,314.8467
43015,MIRATA,LEO,22100.43470738,1 43015U 17073C   22100.43470738  .00010475  00000-0  76713-3 0    10\,2 43015  97.6810 358.2860 0243557  44.8754 317.1870 14.82917823237189,97.681,0.0243557,14.82917823,358.286,44.8754,317.187
43015,MIRATA,LEO,22100.70460461,1 43015U 17073C   22100.70460461  .00012606  00000-0  92194-3 0    11\,2 43015  97.6810 358.5456 0243506  43.9948 318.0365 14.82927684237222,97.681,0.0243506,14.82927684,358.5456,43.9948,318.0365
43015,MIRATA,LEO,22101.44681672,1 43015U 17073C   22101.44681672  .00010650  00000-0  77976-3 0    10\,2 43015  97.6811 359.2595 0243432  41.5786 320.3660 14.82942945237330,97.6811,0.0243432,14.82942945,359.2595,41.5786,320.366
43015,MIRATA,LEO,22101.64923678,1 43015U 17073C   22101.64923678  .00010662  00000-0  78055-3 0    19\,2 43015  97.6811 359.4541 0243414  40.9194 321.0010 14.82947716237360,97.6811,0.0243414,14.82947716,359.4541,40.9194,321.001
43015,MIRATA,LEO,22102.18902139,1 43015U 17073C   22102.18902139  .00010657  00000-0  78017-3 0  3686\,2 43015  97.6812 359.9734 0243357  39.1623 322.6923 14.82957607237442,97.6812,0.0243357,14.82957607,359.9734,39.1623,322.6923
43015,MIRATA,LEO,22102.52638444,1 43015U 17073C   22102.52638444  .00012018  00000-0  87903-3 0    10\,2 43015  97.6815   0.2981 0243313  38.0660 323.7469 14.82965384237499,97.6815,0.0243313,14.82965384,0.2981,38.066,323.7469
43015,MIRATA,LEO,22102.66132907,1 43015U 17073C   22102.66132907  .00012290  00000-0  89877-3 0    12\,2 43015  97.6815   0.4279 0243295  37.6249 324.1709 14.82968831237513,97.6815,0.0243295,14.82968831,0.4279,37.6249,324.1709
43015,MIRATA,LEO,22103.47099317,1 43015U 17073C   22103.47099317  .00009339  00000-0  68437-3 0    18\,2 43015  97.6816   1.2070 0243225  34.9809 326.7114 14.82979917237635,97.6816,0.0243225,14.82979917,1.207,34.9809,326.7114
43015,MIRATA,LEO,22103.67340774,1 43015U 17073C   22103.67340774  .00009365  00000-0  68632-3 0    12\,2 43015  97.6815   1.4018 0243202  34.3140 327.3516 14.82983961237665,97.6815,0.0243202,14.82983961,1.4018,34.314,327.3516
43015,MIRATA,LEO,22104.48306105,1 43015U 17073C   22104.48306105  .00009299  00000-0  68161-3 0    15\,2 43015  97.6814   2.1808 0243067  31.6675 329.8903 14.82998284237785,97.6814,0.0243067,14.82998284,2.1808,31.6675,329.8903
43015,MIRATA,LEO,22104.95535444,1 43015U 17073C   22104.95535444  .00010297  00000-0  75411-3 0    13\,2 43015  97.6814   2.6353 0242998  30.1213 331.3722 14.83008868237855,97.6814,0.0242998,14.83008868,2.6353,30.1213,331.3722
43015,MIRATA,LEO,22105.42764459,1 43015U 17073C   22105.42764459  .00009771  00000-0  71600-3 0    17\,2 43015  97.6813   3.0898 0242920  28.5718 332.8563 14.83017185237928,97.6813,0.024292,14.83017185,3.0898,28.5718,332.8563
43015,MIRATA,LEO,22105.69752269,1 43015U 17073C   22105.69752269  .00009632  00000-0  70585-3 0    19\,2 43015  97.6813   3.3495 0242883  27.6867 333.7037 14.83023811237960,97.6813,0.0242883,14.83023811,3.3495,27.6867,333.7037
43015,MIRATA,LEO,22106.43968231,1 43015U 17073C   22106.43968231  .00008117  00000-0  59577-3 0    15\,2 43015  97.6811   4.0636 0242782  25.2608 336.0249 14.83038349238074,97.6811,0.0242782,14.83038349,4.0636,25.2608,336.0249
43015,MIRATA,LEO,22106.70955669,1 43015U 17073C   22106.70955669  .00008122  00000-0  59617-3 0    17\,2 43015  97.6811   4.3232 0242750  24.3794 336.8677 14.83044053238117,97.6811,0.024275,14.83044053,4.3232,24.3794,336.8677
